NORAD_CAT_ID,OBJECT_NAME,OBJECT_TYPE,EPOCH,MEAN_MOTION,ECCENTRICITY,INCLINATION,RA_OF_ASC_NODE,ARG_OF_PERICENTER,MEAN_ANOMALY,BSTAR,MEAN_MOTION_DOT,MEAN_MOTION_DDOT,TLE_LINE0,TLE_LINE1,TLE_LINE2,SEMIMAJOR_AXIS,PERIOD,APOGEE,PERIGEE,DECAYED
51873.0,STARLINK-3582,PAYLOAD,2022-03-29 14:00:01,15.72581865,0.000138,53.218,15.5792,82.4784,302.2765,0.0064168,0.00968136,0.0,0 STARLINK-3582,1 51873U 22022X   22088.58334491  .00968136  00000-0  64168-2 0  9999,2 51873  53.2180  15.5792 0001380  82.4784 302.2765 15.72581865  5300,6729.658,91.569,352.452,350.594,0.0
51873.0,STARLINK-3582,PAYLOAD,2022-03-29 20:00:01,15.7320784,0.0001168,53.2176,14.3389,75.8413,285.2479,-3.4741e-05,-5.494e-05,0.0,0 STARLINK-3582,1 51873U 22022X   22088.83334491 -.00005494  00000-0 -34741-4 0  9994,2 51873  53.2176  14.3389 0001168  75.8413 285.2479 15.73207840  5348,6727.873000000001,91.533,350.524,348.952,0.0
51873.0,STARLINK-3582,PAYLOAD,2022-03-29 22:00:00,15.73206252,0.0001194,53.2175,13.9271,72.2018,41.1218,-2.484800000000001e-05,-4.106e-05,0.0,0 STARLINK-3582,1 51873U 22022X   22088.91667824 -.00004106  00000-0 -24848-4 0  9998,2 51873  53.2175  13.9271 0001194  72.2018  41.1218 15.73206252  3695,6727.877,91.533,350.546,348.939,0.0
51873.0,STARLINK-3582,PAYLOAD,2022-03-30 04:00:00,15.73198298,0.0001147,53.2185,12.7058,80.5313,9.7773,0.00020063,0.00027627,0.0,0 STARLINK-3582,1 51873U 22022X   22089.16667824  .00027627  00000-0  20063-3 0  9991,2 51873  53.2185  12.7058 0001147  80.5313   9.7773 15.73198298  5399,6727.9,91.533,350.537,348.99300000000005,0.0
51873.0,STARLINK-3582,PAYLOAD,2022-03-30 14:00:01,15.7316275,0.0001158,53.2186,10.6419,92.3889,199.1738,0.00065965,0.00092837,0.0,0 STARLINK-3582,1 51873U 22022X   22089.58335648  .00092837  00000-0  65965-3 0  9998,2 51873  53.2186  10.6419 0001158  92.3889 199.1738 15.73162750  3677,6728.001,91.535,350.645,349.087,0.0
51873.0,STARLINK-3582,PAYLOAD,2022-03-30 20:00:01,15.73263082,0.0001098,53.2189,9.4049,98.486,169.6835,-0.00060346,-0.00084689,0.0,0 STARLINK-3582,1 51873U 22022X   22089.83334491 -.00084689  00000-0 -60346-3 0  9997,2 51873  53.2189   9.4049 0001098  98.4860 169.6835 15.73263082  5508,6727.715,91.53,350.319,348.842,0.0
51873.0,STARLINK-3582,PAYLOAD,2022-03-30 22:00:00,15.73273997,0.0001025,53.2189,8.9932,93.1984,287.2124,-0.0010163,-0.00141321,0.0,0 STARLINK-3582,1 51873U 22022X   22089.91667824 -.00141321  00000-0 -10163-2 0  9993,2 51873  53.2189   8.9932 0001025  93.1984 287.2124 15.73273997  3728,6727.684,91.529,350.23900000000015,348.86,0.0
51873.0,STARLINK-3582,PAYLOAD,2022-03-31 14:00:01,15.73121032,8.57e-05,53.2186,5.6937,96.1428,102.1398,0.00077864,0.00109721,0.0,0 STARLINK-3582,1 51873U 22022X   22090.58334491  .00109721  00000-0  77864-3 0  9997,2 51873  53.2186   5.6937 0000857  96.1428 102.1398 15.73121032  5623,6728.12,91.538,350.56199999999984,349.409,0.0
51873.0,STARLINK-3582,PAYLOAD,2022-03-31 22:00:00,15.73234826,0.0001014,53.2185,4.0457,93.3664,193.7844,-0.00028997,-0.00041175,0.0,0 STARLINK-3582,1 51873U 22022X   22090.91667824 -.00041175  00000-0 -28997-3 0  9996,2 51873  53.2185   4.0457 0001014  93.3664 193.7844 15.73234826  3692,6727.795999999999,91.531,350.343,348.97900000000016,0.0
51873.0,STARLINK-3582,PAYLOAD,2022-04-01 08:00:01,15.73266178,0.0001182,53.218,1.9842,86.5884,41.8017,-0.00045621,-0.00064338,0.0,0 STARLINK-3582,1 51873U 22022X   22091.33334491 -.00064338  00000-0 -45621-3 0  9993,2 51873  53.2180   1.9842 0001182  86.5884  41.8017 15.73266178  5732,6727.706999999999,91.529,350.367,348.776,0.0
51873.0,STARLINK-3582,PAYLOAD,2022-04-01 14:00:01,15.73209213,0.0001195,53.2182,0.7456,100.4268,4.7127,8.994399999999999e-05,0.00012026,0.0,0 STARLINK-3582,1 51873U 22022X   22091.58334491  .00012026  00000-0  89944-4 0  9992,2 51873  53.2182   0.7456 0001195 100.4268   4.7127 15.73209213  3698,6727.869000000002,91.533,350.538,348.93,0.0
51873.0,STARLINK-3582,PAYLOAD,2022-04-01 20:00:01,15.73239553,0.0001233,53.2182,359.5084,101.0842,340.76,-0.00061239,-0.00085837,0.0,0 STARLINK-3582,1 51873U 22022X   22091.83334491 -.00085837  00000-0 -61239-3 0  9998,2 51873  53.2182 359.5084 0001233 101.0842 340.7600 15.73239553  5813,6727.781999999997,91.531,350.477,348.8180000000001,0.0
51873.0,STARLINK-3582,PAYLOAD,2022-04-01 22:00:00,15.73212686,0.0001262,53.2185,359.0973,95.3322,98.7232,-0.00082826,-0.00115342,0.0,0 STARLINK-3582,1 51873U 22022X   22091.91667824 -.00115342  00000-0 -82826-3 0  9996,2 51873  53.2185 359.0973 0001262  95.3322  98.7232 15.73212686  3679,6727.859,91.532,350.5730000000001,348.875,0.0
51873.0,STARLINK-3582,PAYLOAD,2022-04-02 06:00:00,15.73103592,0.000114,53.2176,357.444,84.9733,197.9843,0.00044911,0.0006262,0.0,0 STARLINK-3582,1 51873U 22022X   22092.25001157  .00062620  00000-0  44911-3 0  9996,2 51873  53.2176 357.4440 0001140  84.9733 197.9843 15.73103592  5885,6728.17,91.539,350.802,349.26800000000014,0.0
51873.0,STARLINK-3582,PAYLOAD,2022-04-02 14:00:01,15.7315191,0.0001219,53.218,355.7975,99.8813,272.0869,0.00032062,0.00044523,0.0,0 STARLINK-3582,1 51873U 22022X   22092.58335648  .00044523  00000-0  32062-3 0  9993,2 51873  53.2180 355.7975 0001219  99.8813 272.0869 15.73151910  5931,6728.031999999997,91.536,350.717,349.077,0.0
51873.0,STARLINK-3582,PAYLOAD,2022-04-02 22:00:01,15.73212115,0.0001318,53.2178,354.1497,94.5793,6.2818,-0.00081352,-0.00113325,0.0,0 STARLINK-3582,1 51873U 22022X   22092.91668981 -.00113325  00000-0 -81352-3 0  9994,2 51873  53.2178 354.1497 0001318  94.5793   6.2818 15.73212115  3663,6727.861,91.532,350.612,348.839,0.0
51873.0,STARLINK-3582,PAYLOAD,2022-04-03 04:00:00,15.73098895,0.0001228,53.2176,352.9137,91.6485,345.8393,0.00055481,0.00077628,0.0,0 STARLINK-3582,1 51873U 22022X   22093.16667824  .00077628  00000-0  55481-3 0  9994,2 51873  53.2176 352.9137 0001228  91.6485 345.8393 15.73098895  6024,6728.183000000001,91.539,350.875,349.222,0.0
51873.0,STARLINK-3582,PAYLOAD,2022-04-03 22:00:00,15.73155516,0.0001336,53.2177,349.2016,97.5854,269.8327,0.00026541,0.0003672,0.0,0 STARLINK-3582,1 51873U 22022X   22093.91667824  .00036720  00000-0  26541-3 0  9990,2 51873  53.2177 349.2016 0001336  97.5854 269.8327 15.73155516  6144,6728.022,91.536,350.786,348.98800000000006,0.0
51873.0,STARLINK-3582,PAYLOAD,2022-04-04 14:00:01,15.73144137,9.63e-05,53.2172,345.9013,109.6447,75.5996,0.00082266,0.00116164,0.0,0 STARLINK-3582,1 51873U 22022X   22094.58334491  .00116164  00000-0  82266-3 0  9992,2 51873  53.2172 345.9013 0000963 109.6447  75.5996 15.73144137  3707,6728.054,91.536,350.56699999999995,349.272,0.0
51873.0,STARLINK-3582,PAYLOAD,2022-04-04 22:00:00,15.73244333,9.6e-05,53.217,344.2536,100.7095,173.4701,0.00042332,0.00059323,0.0,0 STARLINK-3582,1 51873U 22022X   22094.91667824  .00059323  00000-0  42332-3 0  9991,2 51873  53.2170 344.2536 0000960 100.7095 173.4701 15.73244333  3706,6727.769,91.531,350.28,348.98800000000006,0.0
51873.0,STARLINK-3582,PAYLOAD,2022-04-05 00:00:00,15.7325589,9.940000000000004e-05,53.2171,343.8416,96.6377,289.7879,0.00041204,0.00057744,0.0,0 STARLINK-3582,1 51873U 22022X   22095.00001157  .00057744  00000-0  41204-3 0  9995,2 51873  53.2171 343.8416 0000994  96.6377 289.7879 15.73255890  6319,6727.736,91.53,350.27,348.932,0.0
51873.0,STARLINK-3582,PAYLOAD,2022-04-05 06:00:00,15.73316438,0.0001008,53.2164,342.6042,92.7276,270.4236,-0.00069501,-0.00097517,0.0,0 STARLINK-3582,1 51873U 22022X   22095.25001157 -.00097517  00000-0 -69501-3 0  9996,2 51873  53.2164 342.6042 0001008  92.7276 270.4236 15.73316438  6359,6727.563,91.526,350.106,348.75,0.0
51873.0,STARLINK-3582,PAYLOAD,2022-04-05 14:00:01,15.73222416,0.0001173,53.2167,340.9524,110.3989,341.8548,-0.0001347,-0.00019498,0.0,0 STARLINK-3582,1 51873U 22022X   22095.58335648 -.00019498  00000-0 -13470-3 0  9993,2 51873  53.2167 340.9524 0001173 110.3989 341.8548 15.73222416  3706,6727.831,91.532,350.485,348.907,0.0
51873.0,STARLINK-3582,PAYLOAD,2022-04-05 22:00:00,15.73195347,9.17e-05,53.2169,339.3047,101.9348,79.1855,-0.00041127,-0.00057928,0.0,0 STARLINK-3582,1 51873U 22022X   22095.91667824 -.00057928  00000-0 -41127-3 0  9994,2 51873  53.2169 339.3047 0000917 101.9348  79.1855 15.73195347  3704,6727.908,91.533,350.39,349.156,0.0
51873.0,STARLINK-3582,PAYLOAD,2022-04-06 06:00:02,15.73166302,6.82e-05,53.2167,337.6552,100.0988,169.9734,0.00033042,0.00045939,0.0,0 STARLINK-3582,1 51873U 22022X   22096.25002315  .00045939  00000-0  33042-3 0  9994,2 51873  53.2167 337.6552 0000682 100.0988 169.9734 15.73166302  6518,6727.991,91.535,350.315,349.397,0.0
51873.0,STARLINK-3582,PAYLOAD,2022-04-06 14:00:01,15.73191533,8.23e-05,53.2167,336.0041,113.9984,244.9075,0.00035311,0.00049209,0.0,0 STARLINK-3582,1 51873U 22022X   22096.58334491  .00049209  00000-0  35311-3 0  9998,2 51873  53.2167 336.0041 0000823 113.9984 244.9075 15.73191533  3704,6727.919,91.534,350.338,349.231,0.0
51873.0,STARLINK-3582,PAYLOAD,2022-04-06 22:00:00,15.73209797,9e-05,53.2165,334.3565,99.9653,347.9119,0.00011545,0.0001561999999999,0.0,0 STARLINK-3582,1 51873U 22022X   22096.91667824  .00015620  00000-0  11545-3 0  9997,2 51873  53.2165 334.3565 0000900  99.9653 347.9119 15.73209797  3699,6727.8669999999975,91.533,350.338,349.12699999999984,0.0
51873.0,STARLINK-3582,PAYLOAD,2022-04-07 04:00:00,15.73238634,0.0001001,53.216,333.1197,91.525,333.0463,-0.0001685,-0.00024238,0.0,0 STARLINK-3582,1 51873U 22022X   22097.16667824 -.00024238  00000-0 -16850-3 0  9996,2 51873  53.2160 333.1197 0001001  91.5250 333.0463 15.73238634  6655,6727.785,91.531,350.3230000000001,348.977,0.0
51873.0,STARLINK-3582,PAYLOAD,2022-04-07 14:00:01,15.73210903,0.0001274,53.2162,331.0553,108.6948,157.0929,7.5203e-05,9.952e-05,0.0,0 STARLINK-3582,1 51873U 22022X   22097.58334491  .00009952  00000-0  75203-4 0  9995,2 51873  53.2162 331.0553 0001274 108.6948 157.0929 15.73210903  3709,6727.864000000001,91.533,350.586,348.872,0.0
